[{"OBJECT_NAME":"ALOS (DAICHI)","OBJECT_ID":"2006-002A","EPOCH":"2026-03-13T07:33:54.978624","MEAN_MOTION":14.69823673,"ECCENTRICITY":8.104e-5,"INCLINATION":98.1221,"RA_OF_ASC_NODE":28.2525,"ARG_OF_PERICENTER":63.575,"MEAN_ANOMALY":296.5539,"EPHEMERIS_TYPE":0,"CLASSIFICATION_TYPE":"U","NORAD_CAT_ID":28931,"ELEMENT_SET_NO":999,"REV_AT_EPOCH":7401,"BSTAR":0.0002885247,"MEAN_MOTION_DOT":1.674e-5,"MEAN_MOTION_DDOT":0},{"OBJECT_NAME":"H-2A R/B","OBJECT_ID":"2006-002B","EPOCH":"2026-03-13T23:08:19.874688","MEAN_MOTION":15.16520316,"ECCENTRICITY":0.005203,"INCLINATION":98.241,"RA_OF_ASC_NODE":220.3557,"ARG_OF_PERICENTER":226.4052,"MEAN_ANOMALY":133.2855,"EPHEMERIS_TYPE":0,"CLASSIFICATION_TYPE":"U","NORAD_CAT_ID":28932,"ELEMENT_SET_NO":999,"REV_AT_EPOCH":9508,"BSTAR":0.00060823022,"MEAN_MOTION_DOT":0.00012203,"MEAN_MOTION_DDOT":0},{"OBJECT_NAME":"RESURS-DK 1","OBJECT_ID":"2006-021A","EPOCH":"2026-03-13T16:49:46.588224","MEAN_MOTION":15.12776946,"ECCENTRICITY":0.00014753,"INCLINATION":69.9324,"RA_OF_ASC_NODE":226.6452,"ARG_OF_PERICENTER":158.8768,"MEAN_ANOMALY":201.2459,"EPHEMERIS_TYPE":0,"CLASSIFICATION_TYPE":"U","NORAD_CAT_ID":29228,"ELEMENT_SET_NO":999,"REV_AT_EPOCH":8813,"BSTAR":0.00024080479,"MEAN_MOTION_DOT":4.129e-5,"MEAN_MOTION_DDOT":0},{"OBJECT_NAME":"CZ-4B R/B","OBJECT_ID":"2006-046C","EPOCH":"2026-03-13T13:36:36.921600","MEAN_MOTION":15.16948471,"ECCENTRICITY":0.00317227,"INCLINATION":97.5592,"RA_OF_ASC_NODE":117.4657,"ARG_OF_PERICENTER":253.2446,"MEAN_ANOMALY":106.5306,"EPHEMERIS_TYPE":0,"CLASSIFICATION_TYPE":"U","NORAD_CAT_ID":29507,"ELEMENT_SET_NO":999,"REV_AT_EPOCH":6063,"BSTAR":0.00025810144,"MEAN_MOTION_DOT":5.087e-5,"MEAN_MOTION_DDOT":0},{"OBJECT_NAME":"CZ-2C R/B","OBJECT_ID":"2007-010B","EPOCH":"2026-03-13T21:10:43.962528","MEAN_MOTION":14.20247909,"ECCENTRICITY":0.00578722,"INCLINATION":98.3981,"RA_OF_ASC_NODE":185.9508,"ARG_OF_PERICENTER":282.1587,"MEAN_ANOMALY":77.3112,"EPHEMERIS_TYPE":0,"CLASSIFICATION_TYPE":"U","NORAD_CAT_ID":31114,"ELEMENT_SET_NO":999,"REV_AT_EPOCH":98031,"BSTAR":8.4896531e-5,"MEAN_MOTION_DOT":1.43e-6,"MEAN_MOTION_DDOT":0},{"OBJECT_NAME":"COSMO-SKYMED 1","OBJECT_ID":"2007-023A","EPOCH":"2026-03-13T22:38:48.004224","MEAN_MOTION":14.96574619,"ECCENTRICITY":0.00015784,"INCLINATION":97.8882,"RA_OF_ASC_NODE":264.0096,"ARG_OF_PERICENTER":95.4766,"MEAN_ANOMALY":264.6635,"EPHEMERIS_TYPE":0,"CLASSIFICATION_TYPE":"U","NORAD_CAT_ID":31598,"ELEMENT_SET_NO":999,"REV_AT_EPOCH":1554,"BSTAR":0.00042907589,"MEAN_MOTION_DOT":4.825e-5,"MEAN_MOTION_DDOT":0},{"OBJECT_NAME":"COSMOS 2428","OBJECT_ID":"2007-029A","EPOCH":"2026-03-13T06:53:04.476768","MEAN_MOTION":14.12946842,"ECCENTRICITY":0.0009262,"INCLINATION":70.9437,"RA_OF_ASC_NODE":195.7931,"ARG_OF_PERICENTER":273.4728,"MEAN_ANOMALY":86.5333,"EPHEMERIS_TYPE":0,"CLASSIFICATION_TYPE":"U","NORAD_CAT_ID":31792,"ELEMENT_SET_NO":999,"REV_AT_EPOCH":96460,"BSTAR":3.677801e-5,"MEAN_MOTION_DOT":2.1e-7,"MEAN_MOTION_DDOT":0},{"OBJECT_NAME":"SL-16 R/B","OBJECT_ID":"2007-029B","EPOCH":"2026-03-13T23:15:39.584160","MEAN_MOTION":14.14835008,"ECCENTRICITY":0.00022853,"INCLINATION":70.9758,"RA_OF_ASC_NODE":163.3899,"ARG_OF_PERICENTER":276.3297,"MEAN_ANOMALY":257.2299,"EPHEMERIS_TYPE":0,"CLASSIFICATION_TYPE":"U","NORAD_CAT_ID":31793,"ELEMENT_SET_NO":999,"REV_AT_EPOCH":96597,"BSTAR":0.00014069385,"MEAN_MOTION_DOT":2.24e-6,"MEAN_MOTION_DDOT":0},{"OBJECT_NAME":"KORONAS-FOTON","OBJECT_ID":"2009-003A","EPOCH":"2026-03-13T23:29:11.650848","MEAN_MOTION":15.43413244,"ECCENTRICITY":0.00116063,"INCLINATION":82.4272,"RA_OF_ASC_NODE":271.4176,"ARG_OF_PERICENTER":135.6556,"MEAN_ANOMALY":224.5623,"EPHEMERIS_TYPE":0,"CLASSIFICATION_TYPE":"U","NORAD_CAT_ID":33504,"ELEMENT_SET_NO":999,"REV_AT_EPOCH":94640,"BSTAR":0.00023524864,"MEAN_MOTION_DOT":0.00010574,"MEAN_MOTION_DDOT":0},{"OBJECT_NAME":"CZ-2C R/B","OBJECT_ID":"2011-030B","EPOCH":"2026-03-13T08:18:14.696352","MEAN_MOTION":14.81238528,"ECCENTRICITY":0.00520635,"INCLINATION":97.8544,"RA_OF_ASC_NODE":29.5357,"ARG_OF_PERICENTER":340.1293,"MEAN_ANOMALY":180.5892,"EPHEMERIS_TYPE":0,"CLASSIFICATION_TYPE":"U","NORAD_CAT_ID":37731,"ELEMENT_SET_NO":999,"REV_AT_EPOCH":79063,"BSTAR":0.00024337131,"MEAN_MOTION_DOT":1.885e-5,"MEAN_MOTION_DDOT":0},{"OBJECT_NAME":"H-2A R/B","OBJECT_ID":"2012-025E","EPOCH":"2026-03-13T17:51:12.017376","MEAN_MOTION":14.95204385,"ECCENTRICITY":0.0043201,"INCLINATION":98.4735,"RA_OF_ASC_NODE":40.1151,"ARG_OF_PERICENTER":300.7371,"MEAN_ANOMALY":58.9596,"EPHEMERIS_TYPE":0,"CLASSIFICATION_TYPE":"U","NORAD_CAT_ID":38341,"ELEMENT_SET_NO":999,"REV_AT_EPOCH":74882,"BSTAR":0.00033326608,"MEAN_MOTION_DOT":3.661e-5,"MEAN_MOTION_DDOT":0},{"OBJECT_NAME":"SHIJIAN-16 (SJ-16)","OBJECT_ID":"2013-057A","EPOCH":"2026-03-13T23:40:36.495264","MEAN_MOTION":14.92370565,"ECCENTRICITY":0.00153206,"INCLINATION":74.9729,"RA_OF_ASC_NODE":176.9542,"ARG_OF_PERICENTER":101.4806,"MEAN_ANOMALY":258.8104,"EPHEMERIS_TYPE":0,"CLASSIFICATION_TYPE":"U","NORAD_CAT_ID":39358,"ELEMENT_SET_NO":999,"REV_AT_EPOCH":67214,"BSTAR":0.00032553637,"MEAN_MOTION_DOT":3.311e-5,"MEAN_MOTION_DDOT":0},{"OBJECT_NAME":"SL-4 R/B","OBJECT_ID":"2014-021B","EPOCH":"2026-03-13T21:56:00.104640","MEAN_MOTION":15.39329651,"ECCENTRICITY":0.00970978,"INCLINATION":51.607,"RA_OF_ASC_NODE":316.6686,"ARG_OF_PERICENTER":118.4391,"MEAN_ANOMALY":242.6419,"EPHEMERIS_TYPE":0,"CLASSIFICATION_TYPE":"U","NORAD_CAT_ID":39679,"ELEMENT_SET_NO":999,"REV_AT_EPOCH":65692,"BSTAR":0.00033585785,"MEAN_MOTION_DOT":0.00015284,"MEAN_MOTION_DDOT":0},{"OBJECT_NAME":"ALOS-2","OBJECT_ID":"2014-029A","EPOCH":"2026-03-13T23:30:34.580160","MEAN_MOTION":14.79523429,"ECCENTRICITY":0.00014854,"INCLINATION":97.9187,"RA_OF_ASC_NODE":171.514,"ARG_OF_PERICENTER":93.7026,"MEAN_ANOMALY":266.4355,"EPHEMERIS_TYPE":0,"CLASSIFICATION_TYPE":"U","NORAD_CAT_ID":39766,"ELEMENT_SET_NO":999,"REV_AT_EPOCH":63750,"BSTAR":0.00028185181,"MEAN_MOTION_DOT":2.057e-5,"MEAN_MOTION_DDOT":0},{"OBJECT_NAME":"YAOGAN-29","OBJECT_ID":"2015-069A","EPOCH":"2026-03-13T23:27:57.023712","MEAN_MOTION":14.83002272,"ECCENTRICITY":0.00016381,"INCLINATION":98.0146,"RA_OF_ASC_NODE":101.4189,"ARG_OF_PERICENTER":30.4553,"MEAN_ANOMALY":329.6755,"EPHEMERIS_TYPE":0,"CLASSIFICATION_TYPE":"U","NORAD_CAT_ID":41038,"ELEMENT_SET_NO":999,"REV_AT_EPOCH":55651,"BSTAR":0.00011475587,"MEAN_MOTION_DOT":8.78e-6,"MEAN_MOTION_DDOT":0},{"OBJECT_NAME":"ASTRO-H (HITOMI)","OBJECT_ID":"2016-012A","EPOCH":"2026-03-13T23:55:26.753088","MEAN_MOTION":15.10037711,"ECCENTRICITY":0.00096977,"INCLINATION":31.0005,"RA_OF_ASC_NODE":328.7535,"ARG_OF_PERICENTER":14.314,"MEAN_ANOMALY":345.7772,"EPHEMERIS_TYPE":0,"CLASSIFICATION_TYPE":"U","NORAD_CAT_ID":41337,"ELEMENT_SET_NO":999,"REV_AT_EPOCH":55288,"BSTAR":0.00020635591,"MEAN_MOTION_DOT":3.537e-5,"MEAN_MOTION_DDOT":0}]
