ALOS (DAICHI)           
1 28931U 06002A   26072.31521966  .00001674  00000+0  28852-3 0  9996
2 28931  98.1221  28.2525 0000810  63.5750 296.5539 14.69823673 74017
H-2A R/B                
1 28932U 06002B   26072.96411892  .00012203  00000+0  60823-3 0  9998
2 28932  98.2410 220.3557 0052030 226.4052 133.2855 15.16520316 95084
RESURS-DK 1             
1 29228U 06021A   26072.70123366  .00004129  00000+0  24080-3 0  9999
2 29228  69.9324 226.6452 0001475 158.8768 201.2459 15.12776946 88136
CZ-4B R/B               
1 29507U 06046C   26072.56709400  .00005087  00000+0  25810-3 0  9995
2 29507  97.5592 117.4657 0031722 253.2446 106.5306 15.16948471 60636
CZ-2C R/B               
1 31114U 07010B   26072.88245327  .00000143  00000+0  84897-4 0  9991
2 31114  98.3981 185.9508 0057872 282.1587  77.3112 14.20247909980318
COSMO-SKYMED 1          
1 31598U 07023A   26072.94361116  .00004825  00000+0  42908-3 0  9990
2 31598  97.8882 264.0096 0001578  95.4766 264.6635 14.96574619 15544
COSMOS 2428             
1 31792U 07029A   26072.28685737  .00000021  00000+0  36778-4 0  9990
2 31792  70.9437 195.7931 0009262 273.4728  86.5333 14.12946842964605
SL-16 R/B               
1 31793U 07029B   26072.96920815  .00000224  00000+0  14069-3 0  9998
2 31793  70.9758 163.3899 0002285 276.3297 257.2299 14.14835008965979
KORONAS-FOTON           
1 33504U 09003A   26072.97860707  .00010574  00000+0  23525-3 0  9994
2 33504  82.4272 271.4176 0011606 135.6556 224.5623 15.43413244946403
CZ-2C R/B               
1 37731U 11030B   26072.34600343  .00001885  00000+0  24337-3 0  9999
2 37731  97.8544  29.5357 0052063 340.1293 180.5892 14.81238528790639
H-2A R/B                
1 38341U 12025E   26072.74388909  .00003661  00000+0  33327-3 0  9990
2 38341  98.4735  40.1151 0043201 300.7371  58.9596 14.95204385748822
SHIJIAN-16 (SJ-16)      
1 39358U 13057A   26072.98653351  .00003311  00000+0  32554-3 0  9990
2 39358  74.9729 176.9542 0015320 101.4806 258.8104 14.92370565672143
SL-4 R/B                
1 39679U 14021B   26072.91389010  .00015284  00000+0  33586-3 0  9997
2 39679  51.6070 316.6686 0097097 118.4391 242.6419 15.39329651656920
ALOS-2                  
1 39766U 14029A   26072.97956690  .00002057  00000+0  28185-3 0  9995
2 39766  97.9187 171.5140 0001485  93.7026 266.4355 14.79523429637506
YAOGAN-29               
1 41038U 15069A   26072.97774333  .00000878  00000+0  11476-3 0  9991
2 41038  98.0146 101.4189 0001638  30.4553 329.6755 14.83002272556516
ASTRO-H (HITOMI)        
1 41337U 16012A   26072.99683742  .00003537  00000+0  20636-3 0  9990
2 41337  31.0005 328.7535 0009697  14.3140 345.7772 15.10037711552885
